{
  "norad_id": 54768,
  "name": "STARLINK-5444",
  "history": [
    {
      "epoch": "2026-03-28T21:31:22.721664",
      "apogee_km": 540.5892027486334,
      "perigee_km": 538.90027110138,
      "latitude_deg": 18.247517764936465,
      "longitude_deg": 102.89191295998171,
      "semi_major_axis_km": 6917.881736925006,
      "eccentricity": 0.00012207,
      "inclination_deg": 53.2173,
      "raan_deg": 303.2849,
      "arg_perigee_deg": 89.7635,
      "mean_anomaly_deg": 270.3497,
      "mean_motion_rev_day": 15.08839559
    }
  ]
}